NORAD_CAT_ID,OBJECT_NAME,OBJECT_TYPE,EPOCH,MEAN_MOTION,ECCENTRICITY,INCLINATION,RA_OF_ASC_NODE,ARG_OF_PERICENTER,MEAN_ANOMALY,BSTAR,MEAN_MOTION_DOT,MEAN_MOTION_DDOT,TLE_LINE0,TLE_LINE1,TLE_LINE2,SEMIMAJOR_AXIS,PERIOD,APOGEE,PERIGEE,DECAYED
56477.0,STARLINK-5534,PAYLOAD,2023-06-07 17:59:36,15.69927946,0.0003444,69.9975,166.5019,268.5551,91.525,1.2797e-05,1.326e-05,0.0,0 STARLINK-5534,1 56477U 23064AF  23158.74972744  .00001326  00000-0  12797-4 0  9999,2 56477  69.9975 166.5019 0003444 268.5551  91.5250 15.69927946  4421,6737.24,91.724,361.425,356.785,0.0
56477.0,STARLINK-5534,PAYLOAD,2023-06-08 09:17:07,15.69928299,0.0003476,69.9969,164.7085,264.941,95.1389,5.4528e-06,4.43e-06,0.0,0 STARLINK-5534,1 56477U 23064AF  23159.38689530  .00000443  00000-0  54528-5 0  9996,2 56477  69.9969 164.7085 0003476 264.9410  95.1389 15.69928299  4522,6737.239,91.724,361.446,356.762,0.0
56477.0,STARLINK-5534,PAYLOAD,2023-06-09 09:45:10,15.69922981,0.0003422,69.9968,161.8419,262.2297,97.851,4.709e-06,3.53e-06,0.0,0 STARLINK-5534,1 56477U 23064AF  23160.40636682  .00000353  00000-0  47090-5 0  9997,2 56477  69.9968 161.8419 0003422 262.2297  97.8510 15.69922981  5039,6737.254,91.724,361.425,356.814,0.0
56477.0,STARLINK-5534,PAYLOAD,2023-06-10 10:13:11,15.69927786,0.0003362,69.9965,158.9762,261.7179,98.3635,1.0133e-05,1.006e-05,0.0,0 STARLINK-5534,1 56477U 23064AF  23161.42583054  .00001006  00000-0  10133-4 0  9997,2 56477  69.9965 158.9762 0003362 261.7179  98.3635 15.69927786  5199,6737.241,91.724,361.371,356.841,0.0
56477.0,STARLINK-5534,PAYLOAD,2023-06-10 11:44:56,15.69929501,0.000336,69.9969,158.7983,261.1647,98.9168,1.1534e-05,1.175e-05,0.0,0 STARLINK-5534,1 56477U 23064AF  23161.48954577  .00001175  00000-0  11534-4 0  9998,2 56477  69.9969 158.7983 0003360 261.1647  98.9168 15.69929501  4854,6737.236,91.724,361.364,356.837,0.0
56477.0,STARLINK-5534,PAYLOAD,2023-06-11 06:05:58,15.69923597,0.0003393,69.9971,156.6491,262.573,97.508,9.9869e-06,9.88e-06,0.0,0 STARLINK-5534,1 56477U 23064AF  23162.25415051  .00000988  00000-0  99869-5 0  9992,2 56477  69.9971 156.6491 0003393 262.5730  97.5080 15.69923597  5322,6737.253,91.724,361.404,356.832,0.0
56477.0,STARLINK-5534,PAYLOAD,2023-06-11 12:12:58,15.69927304,0.0003865,69.9976,155.9343,264.5819,95.4936,1.0495e-05,1.049e-05,0.0,0 STARLINK-5534,1 56477U 23064AF  23162.50901505  .00001049  00000-0  10495-4 0  9990,2 56477  69.9976 155.9343 0003865 264.5819  95.4936 15.69927304  5012,6737.242,91.724,361.711,356.503,0.0
56477.0,STARLINK-5534,PAYLOAD,2023-06-11 16:48:14,15.69920825,0.0003243,69.9969,155.3958,263.1498,96.9329,9.1741e-06,8.9e-06,0.0,0 STARLINK-5534,1 56477U 23064AF  23162.70017109  .00000890  00000-0  91741-5 0  9997,2 56477  69.9969 155.3958 0003243 263.1498  96.9329 15.69920825  5044,6737.261,91.724,361.31,356.941,0.0
56477.0,STARLINK-5534,PAYLOAD,2023-06-12 01:58:45,15.69926459,0.0003306,69.9979,154.321,264.7614,95.3204,6.3595e-06,5.52e-06,0.0,0 STARLINK-5534,1 56477U 23064AF  23163.08246840  .00000552  00000-0  63595-5 0  9996,2 56477  69.9979 154.3210 0003306 264.7614  95.3204 15.69926459  5103,6737.244,91.724,361.337,356.882,0.0
56477.0,STARLINK-5534,PAYLOAD,2023-06-12 08:05:45,15.69933234,0.0003175,69.9977,153.6042,264.6618,95.4215,1.2929e-05,1.343e-05,0.0,0 STARLINK-5534,1 56477U 23064AF  23163.33732920  .00001343  00000-0  12929-4 0  9996,2 56477  69.9977 153.6042 0003175 264.6618  95.4215 15.69933234  5497,6737.225,91.724,361.229,356.951,0.0
56477.0,STARLINK-5534,PAYLOAD,2023-06-13 05:30:17,15.6992783,0.0002335,69.999,151.0953,243.2811,116.8146,1.8368e-05,1.997e-05,0.0,0 STARLINK-5534,1 56477U 23064AF  23164.22936520  .00001997  00000-0  18368-4 0  9995,2 56477  69.9990 151.0953 0002335 243.2811 116.8146 15.69927830  5632,6737.24,91.724,360.679,357.532,0.0
56477.0,STARLINK-5534,PAYLOAD,2023-06-13 07:02:01,15.69935362,0.0003489,69.9973,150.9174,264.6704,95.4094,1.141e-05,1.16e-05,0.0,0 STARLINK-5534,1 56477U 23064AF  23164.29307828  .00001160  00000-0  11410-4 0  9998,2 56477  69.9973 150.9174 0003489 264.6704  95.4094 15.69935362  5290,6737.219,91.724,361.435,356.733,0.0
56477.0,STARLINK-5534,PAYLOAD,2023-06-13 22:19:34,15.69922372,0.0003061,69.9982,149.1251,264.7331,95.3516,5.6827e-06,4.71e-06,0.0,0 STARLINK-5534,1 56477U 23064AF  23164.93025550  .00000471  00000-0  56827-5 0  9994,2 56477  69.9982 149.1251 0003061 264.7331  95.3516 15.69922372  5744,6737.256,91.724,361.183,357.059,0.0
56477.0,STARLINK-5534,PAYLOAD,2023-06-14 10:33:34,15.69936938,0.0003359,69.9967,147.6939,265.8541,94.2271,-2.8575e-05,-3.649e-05,0.0,0 STARLINK-5534,1 56477U 23064AF  23165.43998592 -.00003649  00000-0 -28575-4 0  9995,2 56477  69.9967 147.6939 0003359 265.8541  94.2271 15.69936938  5477,6737.214,91.723,361.342,356.816,0.0
56477.0,STARLINK-5534,PAYLOAD,2023-06-15 07:58:06,15.69920684,0.000294,69.9974,145.1843,259.9319,100.1546,1.7286e-07,-1.92e-06,0.0,0 STARLINK-5534,1 56477U 23064AF  23166.33202502 -.00000192  00000-0  17286-6 0  9992,2 56477  69.9974 145.1843 0002940 259.9319 100.1546 15.69920684  5961,6737.261,91.724,361.107,357.145,0.0
56477.0,STARLINK-5534,PAYLOAD,2023-06-15 11:01:37,15.69916278,0.0002815,69.9975,144.8271,262.5353,97.5522,-9.5352e-06,-1.358e-05,0.0,0 STARLINK-5534,1 56477U 23064AF  23166.45946401 -.00001358  00000-0 -95352-5 0  9993,2 56477  69.9975 144.8271 0002815 262.5353  97.5522 15.69916278  5633,6737.274,91.725,361.035,357.242,0.0
56477.0,STARLINK-5534,PAYLOAD,2023-06-15 15:36:52,15.69922936,0.0003335,69.9982,144.2893,267.6354,92.4459,1.133e-05,1.15e-05,0.0,0 STARLINK-5534,1 56477U 23064AF  23166.65060469  .00001150  00000-0  11330-4 0  9997,2 56477  69.9982 144.2893 0003335 267.6354  92.4459 15.69922936  5664,6737.254,91.724,361.366,356.873,0.0
56477.0,STARLINK-5534,PAYLOAD,2023-06-16 00:47:22,15.6993353,0.0002939,69.9988,143.2142,262.9616,97.1246,1.2727e-05,1.318e-05,0.0,0 STARLINK-5534,1 56477U 23064AF  23167.03289980  .00001318  00000-0  12727-4 0  9998,2 56477  69.9988 143.2142 0002939 262.9616  97.1246 15.69933530  6078,6737.224,91.724,361.069,357.109,0.0
56477.0,STARLINK-5534,PAYLOAD,2023-06-16 09:57:53,15.69924658,0.0003082,69.9993,142.1372,281.4245,78.6604,1.2068e-05,1.239e-05,0.0,0 STARLINK-5534,1 56477U 23064AF  23167.41520579  .00001239  00000-0  12068-4 0  9992,2 56477  69.9993 142.1372 0003082 281.4245  78.6604 15.69924658  6131,6737.25,91.724,361.191,357.038,0.0
56477.0,STARLINK-5534,PAYLOAD,2023-06-16 16:04:53,15.69932542,0.0004022,69.9966,141.4221,266.7069,93.3666,1.5897e-05,1.7e-05,0.0,0 STARLINK-5534,1 56477U 23064AF  23167.67006191  .00001700  00000-0  15897-4 0  9995,2 56477  69.9966 141.4221 0004022 266.7069  93.3666 15.69932542  6178,6737.227,91.724,361.802,356.382,0.0
56477.0,STARLINK-5534,PAYLOAD,2023-06-17 05:50:42,15.69890498,0.0003026,69.9977,139.8112,263.281,96.8041,-1.4186e-05,-1.915e-05,0.0,0 STARLINK-5534,1 56477U 23064AF  23168.24354861 -.00001915  00000-0 -14186-4 0  9999,2 56477  69.9977 139.8112 0003026 263.2810  96.8041 15.69890498  6267,6737.347,91.726,361.251,357.174,0.0
56477.0,STARLINK-5534,PAYLOAD,2023-06-17 10:25:57,15.69908176,0.0002926,69.9977,139.2738,274.8034,85.2827,5.7882e-06,4.83e-06,0.0,0 STARLINK-5534,1 56477U 23064AF  23168.43468775  .00000483  00000-0  57882-5 0  9998,2 56477  69.9977 139.2738 0002926 274.8034  85.2827 15.69908176  5940,6737.297,91.725,361.133,357.19,0.0
56477.0,STARLINK-5534,PAYLOAD,2023-06-18 04:46:57,15.69931426,0.0004128,69.9996,137.1255,268.7299,91.3424,4.0519e-06,2.74e-06,0.0,0 STARLINK-5534,1 56477U 23064AF  23169.19927225  .00000274  00000-0  40519-5 0  9999,2 56477  69.9996 137.1255 0004128 268.7299  91.3424 15.69931426  6411,6737.23,91.724,361.876,356.314,0.0
56477.0,STARLINK-5534,PAYLOAD,2023-06-18 15:29:13,15.69927563,0.0003495,69.9956,135.87,268.7346,91.345,5.7277e-06,4.76e-06,0.0,0 STARLINK-5534,1 56477U 23064AF  23169.64529027  .00000476  00000-0  57277-5 0  9990,2 56477  69.9956 135.8700 0003495 268.7346  91.3450 15.69927563  6131,6737.241,91.724,361.461,356.752,0.0
56477.0,STARLINK-5534,PAYLOAD,2023-06-19 03:43:14,15.69917336,0.0003428,69.9959,134.4369,267.3896,92.6908,2.3951e-05,2.667e-05,0.0,0 STARLINK-5534,1 56477U 23064AF  23170.15502842  .00002667  00000-0  23951-4 0  9999,2 56477  69.9959 134.4369 0003428 267.3896  92.6908 15.69917336  6567,6737.27,91.725,361.445,356.826,0.0
56477.0,STARLINK-5534,PAYLOAD,2023-06-19 06:46:44,15.6991805,0.0003533,69.9972,134.0788,268.665,91.4141,2.2853e-05,2.535e-05,0.0,0 STARLINK-5534,1 56477U 23064AF  23170.28246202  .00002535  00000-0  22853-4 0  9992,2 56477  69.9972 134.0788 0003533 268.6650  91.4141 15.69918050  6236,6737.268,91.725,361.514,356.753,0.0
56477.0,STARLINK-5534,PAYLOAD,2023-06-20 04:11:16,15.69934176,0.0003606,69.9974,131.5707,272.5657,87.5126,-1.7873e-07,-2.34e-06,0.0,0 STARLINK-5534,1 56477U 23064AF  23171.17449201 -.00000234  00000-0 -17873-6 0  9999,2 56477  69.9974 131.5707 0003606 272.5657  87.5126 15.69934176  6723,6737.222,91.724,361.517,356.658,0.0
56477.0,STARLINK-5534,PAYLOAD,2023-06-20 08:46:30,15.69952687,0.0003118,69.9971,131.0333,267.6569,92.427,-4.4063e-05,-5.513e-05,0.0,0 STARLINK-5534,1 56477U 23064AF  23171.36563613 -.00005513  00000-0 -44063-4 0  9998,2 56477  69.9971 131.0333 0003118 267.6569  92.4270 15.69952687  6750,6737.169,91.723,361.135,356.934,0.0
56477.0,STARLINK-5534,PAYLOAD,2023-06-20 14:53:31,15.69930367,0.0003341,69.9971,130.3168,265.2542,94.8272,1.735e-05,1.874e-05,0.0,0 STARLINK-5534,1 56477U 23064AF  23171.62050736  .00001874  00000-0  17350-4 0  9997,2 56477  69.9971 130.3168 0003341 265.2542  94.8272 15.69930367  6794,6737.233,91.724,361.349,356.847,0.0
56477.0,STARLINK-5534,PAYLOAD,2023-06-20 21:00:32,15.69928648,0.0002877,69.9973,129.6004,266.1291,93.9576,1.1999e-05,1.231e-05,0.0,0 STARLINK-5534,1 56477U 23064AF  23171.87537706  .00001231  00000-0  11999-4 0  9991,2 56477  69.9973 129.6004 0002877 266.1291  93.9576 15.69928648  6482,6737.238,91.724,361.041,357.165,0.0
